{
    "links": {
        "self": "http://www.neowsapp.com/rest/v1/neo/3617388?api_key=iIulBulltgU6a56xZRHN4H3l9WmuAYTsLGpBGhQ2"
    },
    "id": "3617388",
    "neo_reference_id": "3617388",
    "name": "(2012 VF46)",
    "designation": "2012 VF46",
    "nasa_jpl_url": "http://ssd.jpl.nasa.gov/sbdb.cgi?sstr=3617388",
    "absolute_magnitude_h": 23.6,
    "estimated_diameter": {
        "kilometers": {
            "estimated_diameter_min": 0.0506471459,
            "estimated_diameter_max": 0.1132504611
        },
        "meters": {
            "estimated_diameter_min": 50.6471458835,
            "estimated_diameter_max": 113.2504610618
        },
        "miles": {
            "estimated_diameter_min": 0.0314706677,
            "estimated_diameter_max": 0.0703705522
        },
        "feet": {
            "estimated_diameter_min": 166.1651821003,
            "estimated_diameter_max": 371.5566426699
        }
    },
    "is_potentially_hazardous_asteroid": false,
    "close_approach_data": [
        {
            "close_approach_date": "2012-11-23",
            "close_approach_date_full": "2012-Nov-23 13:40",
            "epoch_date_close_approach": 1353678000000,
            "relative_velocity": {
                "kilometers_per_second": "10.1729255149",
                "kilometers_per_hour": "36622.5318537444",
                "miles_per_hour": "22755.8170843447"
            },
            "miss_distance": {
                "astronomical": "0.0462385528",
                "lunar": "17.9867970392",
                "kilometers": "6917189.010762536",
                "miles": "4298141.9437975568"
            },
            "orbiting_body": "Earth"
        }
    ],
    "orbital_data": {
        "orbit_id": "11",
        "orbit_determination_date": "2017-04-06 08:48:04",
        "first_observation_date": "2012-11-10",
        "last_observation_date": "2012-11-22",
        "data_arc_in_days": 12,
        "observations_used": 73,
        "orbit_uncertainty": "8",
        "minimum_orbit_intersection": ".0367678",
        "jupiter_tisserand_invariant": "3.657",
        "epoch_osculation": "2456245.5",
        "eccentricity": ".5206130213085133",
        "semi_major_axis": "1.983738269534603",
        "inclination": "11.20276607242978",
        "ascending_node_longitude": "50.01455125300856",
        "orbital_period": "1020.528139792833",
        "perihelion_distance": ".9509782955468715",
        "perihelion_argument": "42.7897677569533",
        "aphelion_distance": "3.016498243522335",
        "perihelion_time": "2456280.872612884352",
        "mean_anomaly": "347.5220092990755",
        "mean_motion": ".352758523712124",
        "equinox": "J2000",
        "orbit_class": {
            "orbit_class_type": "APO",
            "orbit_class_description": "Near-Earth asteroid orbits which cross the Earth’s orbit similar to that of 1862 Apollo",
            "orbit_class_range": "a (semi-major axis) > 1.0 AU; q (perihelion) < 1.017 AU"
        }
    },
    "is_sentry_object": false
}